[{"OBJECT_NAME":"STARLINK-3107","OBJECT_ID":"2021-082AT","EPOCH":"2026-03-09T21:59:27.140640","MEAN_MOTION":15.10504087,"ECCENTRICITY":0.00073375,"INCLINATION":69.9932,"RA_OF_ASC_NODE":287.3824,"ARG_OF_PERICENTER":250.2407,"MEAN_ANOMALY":109.7967,"EPHEMERIS_TYPE":0,"CLASSIFICATION_TYPE":"U","NORAD_CAT_ID":49171,"ELEMENT_SET_NO":999,"REV_AT_EPOCH":24733,"BSTAR":0.001517345,"MEAN_MOTION_DOT":0.00025048,"MEAN_MOTION_DDOT":0},{"OBJECT_NAME":"STARLINK-3261","OBJECT_ID":"2021-125AP","EPOCH":"2026-03-09T17:03:51.486048","MEAN_MOTION":15.08834454,"ECCENTRICITY":0.0001058,"INCLINATION":53.2156,"RA_OF_ASC_NODE":239.0268,"ARG_OF_PERICENTER":81.2953,"MEAN_ANOMALY":278.8159,"EPHEMERIS_TYPE":0,"CLASSIFICATION_TYPE":"U","NORAD_CAT_ID":50193,"ELEMENT_SET_NO":999,"REV_AT_EPOCH":23678,"BSTAR":0.00022227956,"MEAN_MOTION_DOT":3.251e-5,"MEAN_MOTION_DDOT":0}]
